GLOBALSTAR M068         
1 32266U 07048D   24210.25932641 -.00000087  00000+0  92718-4 0  9995
2 32266  51.9856 209.6755 0000927 144.3513 228.9809 12.62794963776926
GLOBALSTAR M079         
1 37188U 10054A   24210.25936480 -.00000102  00000+0  97086-5 0  9991
2 37188  52.0048  45.8736 0000660  65.1962 106.4103 12.62261958636228
GLOBALSTAR M074         
1 37189U 10054B   24210.12431868 -.00000101  00000+0  13152-4 0  9998
2 37189  52.0026  45.6581 0000863  78.8074  78.3572 12.62270734636208
GLOBALSTAR M076         
1 37190U 10054C   24209.90947483 -.00000089  00000+0  84704-4 0  9995
2 37190  52.0037  46.4546 0000995  55.5844  84.4710 12.62254195636187
GLOBALSTAR M077         
1 37191U 10054D   24209.81834668 -.00000094  00000+0  54310-4 0  9992
2 37191  52.0092   3.4938 0000883  96.4122  49.8223 12.62261530636181
GLOBALSTAR M075         
1 37192U 10054E   24209.74249983 -.00000092  00000+0  63201-4 0  9992
2 37192  51.9950  89.4004 0000640  61.0769 340.1758 12.62262143635031
GLOBALSTAR M073         
1 37193U 10054F   24209.92932830 -.00000093  00000+0  60630-4 0  9997
2 37193  52.0084   2.4038 0000840  86.0534  83.6185 12.62267358636883
GLOBALSTAR M083         
1 37739U 11033A   24209.86013933 -.00000083  00000+0  11340-3 0  9990
2 37739  51.9875 311.7890 0000529 131.7341  24.9718 12.62262792605899
GLOBALSTAR M088         
1 37740U 11033B   24210.21274340 -.00000085  00000+0  10636-3 0  9993
2 37740  51.9703 216.4775 0000126 224.6208 215.4182 12.62265697601773
GLOBALSTAR M091         
1 37741U 11033C   24210.23124826 -.00000084  00000+0  10794-3 0  9993
2 37741  51.9975 179.3978 0000178 276.0243 186.5493 12.62265015602536
GLOBALSTAR M085         
1 37742U 11033D   24210.03988683 -.00000082  00000+0  12108-3 0  9990
2 37742  51.9864 131.3041 0000284  25.6617 348.3415 12.62263735603253
GLOBALSTAR M081         
1 37743U 11033E   24209.91150147 -.00000088  00000+0  85619-4 0  9996
2 37743  51.9953 134.2829 0000471   4.0264  25.6982 12.62267157602891
GLOBALSTAR M089         
1 37744U 11033F   24209.88324439 -.00000090  00000+0  77524-4 0  9999
2 37744  51.9932  88.6605 0001005  51.2017  28.5618 12.62266413603980
GLOBALSTAR M084         
1 38040U 11080A   24210.07473613 -.00000081  00000+0  12704-3 0  9991
2 38040  52.0024 315.1923 0000881  99.2375  72.3658 12.62264734582010
GLOBALSTAR M080         
1 38041U 11080B   24210.04808455 -.00000090  00000+0  76412-4 0  9992
2 38041  52.0079 316.7661 0000820  81.4263  89.2642 12.62263155581991
GLOBALSTAR M082         
1 38042U 11080C   24209.66404001 -.00000083  00000+0  11588-3 0  9992
2 38042  52.0070 273.3484 0000824 168.1044 356.5144 12.62264387582512
GLOBALSTAR M092         
1 38043U 11080D   24210.19350883 -.00000077  00000+0  14789-3 0  9990
2 38043  52.0105   2.0925 0000946  97.1508  74.8290 12.62264294581248
GLOBALSTAR M090         
1 38044U 11080E   24209.76799137 -.00000084  00000+0  11061-3 0  9999
2 38044  51.9877 267.2588 0000528 161.9302 354.8998 12.62265385582644
GLOBALSTAR M086         
1 38045U 11080F   24209.87662101 -.00000095  00000+0  51527-4 0  9996
2 38045  51.9887 267.4527 0000501 323.9617 207.5146 12.62264809582606
GLOBALSTAR M097         
1 39072U 13005A   24210.10341165 -.00000095  00000+0  51580-4 0  9997
2 39072  52.0024 180.9798 0000205 318.9469  41.1383 12.62269132529960
GLOBALSTAR M093         
1 39073U 13005B   24209.91811907 -.00000082  00000+0  11919-3 0  9998
2 39073  51.9790 175.3622 0000333 308.1363  51.9473 12.62276285529819
GLOBALSTAR M094         
1 39074U 13005C   24210.15569972 -.00000094  00000+0  54532-4 0  9991
2 39074  51.9961  88.6974 0000506  40.6781 319.4124 12.62266236531475
GLOBALSTAR M096         
1 39075U 13005D   24209.93141906 -.00000081  00000+0  12606-3 0  9990
2 39075  52.0067 137.6417 0000276 352.2747   7.8116 12.62267894530345
GLOBALSTAR M078         
1 39076U 13005E   24210.14262915 -.00000101  00000+0  14477-4 0  9992
2 39076  51.9843 221.9510 0001055 170.9172 189.1714 12.62273446529201
GLOBALSTAR M095         
1 39077U 13005F   24209.77287478 -.00000099  00000+0  29090-4 0  9994
2 39077  51.9770 220.4331 0000651 209.1340 150.9490 12.62262715528808
GLOBALSTAR M087         
1 52888U 22064A   24210.13156966 -.00000102  00000+0  51104-4 0  9999
2 52888  51.9762  65.6097 0010070 106.0790 254.1220 13.37579575103009
